SITRO-AIS-65            
1 67266U 25313U   26012.15990266  .00012486  00000+0  57790-3 0  9991
2 67266  97.4139  89.3814 0015240 186.0813 174.0240 15.20161321  2220
2025-313V               
1 67267U 25313V   26012.29123133  .00013059  00000+0  60344-3 0  9994
2 67267  97.4122  89.4993 0014450 191.2792 168.8122 15.20218093  2249
ZORKY-2M 7              
1 67268U 25313W   26012.29170903  .00009768  00000+0  45344-3 0  9997
2 67268  97.4122  89.4971 0015393 186.4289 173.6751 15.20121105  2249
2025-313X               
1 67269U 25313X   26012.29100341  .00014940  00000+0  68812-3 0  9990
2 67269  97.4148  89.5127 0015253 184.9421 175.1666 15.20285589  2247
SITRO-TD-3              
1 67270U 25313Y   26012.16018499  .00012631  00000+0  58505-3 0  9993
2 67270  97.4121  89.3780 0015358 187.0918 173.0102 15.20131012  2225
2025-313Z               
1 67271U 25313Z   26012.29229640  .00005634  00000+0  26397-3 0  9999
2 67271  97.4117  89.4974 0015385 182.3046 177.8121 15.19995060  2241
2025-313AA              
1 67272U 25313AA  26012.29059540  .00012742  00000+0  58713-3 0  9995
2 67272  97.4121  89.4981 0015096 186.9387 173.1642 15.20312766  2247
2025-313AB              
1 67273U 25313AB  26012.29214279  .00003988  00000+0  18798-3 0  9999
2 67273  97.4136  89.5000 0014279 190.8876 169.2052 15.19984985  2243
2025-313AC              
1 67274U 25313AC  26012.22548919  .00008285  00000+0  38503-3 0  9995
2 67274  97.4110  89.4406 0015040 186.2023 173.9028 15.20136867  2239
2025-313AD              
1 67275U 25313AD  26012.29080231  .00008915  00000+0  41344-3 0  9998
2 67275  97.4085  89.5014 0014263 188.8354 171.2632 15.20195794  2245
2025-313AE              
1 67276U 25313AE  26012.29076694  .00008385  00000+0  38909-3 0  9991
2 67276  97.4090  89.5018 0014219 188.8433 171.2554 15.20196889  2244
2025-313AF              
1 67277U 25313AF  26012.29092486  .00007624  00000+0  35444-3 0  9995
2 67277  97.4091  89.5022 0014203 188.6916 171.4076 15.20165133  2247
