CCSDS_OMM_VERS = 2.0
CREATION_DATE  = 
ORIGINATOR     = 

OBJECT_NAME    = SITRO-AIS-65
OBJECT_ID      = 2025-313U
CENTER_NAME    = EARTH
REF_FRAME      = TEME
TIME_SYSTEM    = UTC
MEAN_ELEMENT_THEORY = SGP/SGP4

EPOCH          = 2026-01-12T03:50:15.589824
MEAN_MOTION    = 15.20161321
ECCENTRICITY   = .00152403
INCLINATION    = 97.4139
RA_OF_ASC_NODE = 89.3814
ARG_OF_PERICENTER = 186.0813
MEAN_ANOMALY   = 174.0240

EPHEMERIS_TYPE = 0
CLASSIFICATION_TYPE = U
NORAD_CAT_ID   = 67266
ELEMENT_SET_NO = 999
REV_AT_EPOCH   = 222
BSTAR          = .5778965E-3
MEAN_MOTION_DOT = .12486E-3
MEAN_MOTION_DDOT = 0

CCSDS_OMM_VERS = 2.0
CREATION_DATE  = 
ORIGINATOR     = 

OBJECT_NAME    = 2025-313V
OBJECT_ID      = 2025-313V
CENTER_NAME    = EARTH
REF_FRAME      = TEME
TIME_SYSTEM    = UTC
MEAN_ELEMENT_THEORY = SGP/SGP4

EPOCH          = 2026-01-12T06:59:22.386912
MEAN_MOTION    = 15.20218093
ECCENTRICITY   = .00144509
INCLINATION    = 97.4122
RA_OF_ASC_NODE = 89.4993
ARG_OF_PERICENTER = 191.2792
MEAN_ANOMALY   = 168.8122

EPHEMERIS_TYPE = 0
CLASSIFICATION_TYPE = U
NORAD_CAT_ID   = 67267
ELEMENT_SET_NO = 999
REV_AT_EPOCH   = 224
BSTAR          = .60343587E-3
MEAN_MOTION_DOT = .13059E-3
MEAN_MOTION_DDOT = 0

CCSDS_OMM_VERS = 2.0
CREATION_DATE  = 
ORIGINATOR     = 

OBJECT_NAME    = ZORKY-2M 7
OBJECT_ID      = 2025-313W
CENTER_NAME    = EARTH
REF_FRAME      = TEME
TIME_SYSTEM    = UTC
MEAN_ELEMENT_THEORY = SGP/SGP4

EPOCH          = 2026-01-12T07:00:03.660192
MEAN_MOTION    = 15.20121105
ECCENTRICITY   = .00153936
INCLINATION    = 97.4122
RA_OF_ASC_NODE = 89.4971
ARG_OF_PERICENTER = 186.4289
MEAN_ANOMALY   = 173.6751

EPHEMERIS_TYPE = 0
CLASSIFICATION_TYPE = U
NORAD_CAT_ID   = 67268
ELEMENT_SET_NO = 999
REV_AT_EPOCH   = 224
BSTAR          = .45343912E-3
MEAN_MOTION_DOT = .9768E-4
MEAN_MOTION_DDOT = 0

CCSDS_OMM_VERS = 2.0
CREATION_DATE  = 
ORIGINATOR     = 

OBJECT_NAME    = 2025-313X
OBJECT_ID      = 2025-313X
CENTER_NAME    = EARTH
REF_FRAME      = TEME
TIME_SYSTEM    = UTC
MEAN_ELEMENT_THEORY = SGP/SGP4

EPOCH          = 2026-01-12T06:59:02.694624
MEAN_MOTION    = 15.20285589
ECCENTRICITY   = .00152531
INCLINATION    = 97.4148
RA_OF_ASC_NODE = 89.5127
ARG_OF_PERICENTER = 184.9421
MEAN_ANOMALY   = 175.1666

EPHEMERIS_TYPE = 0
CLASSIFICATION_TYPE = U
NORAD_CAT_ID   = 67269
ELEMENT_SET_NO = 999
REV_AT_EPOCH   = 224
BSTAR          = .6881213E-3
MEAN_MOTION_DOT = .1494E-3
MEAN_MOTION_DDOT = 0

CCSDS_OMM_VERS = 2.0
CREATION_DATE  = 
ORIGINATOR     = 

OBJECT_NAME    = SITRO-TD-3
OBJECT_ID      = 2025-313Y
CENTER_NAME    = EARTH
REF_FRAME      = TEME
TIME_SYSTEM    = UTC
MEAN_ELEMENT_THEORY = SGP/SGP4

EPOCH          = 2026-01-12T03:50:39.983136
MEAN_MOTION    = 15.20131012
ECCENTRICITY   = .00153584
INCLINATION    = 97.4121
RA_OF_ASC_NODE = 89.3780
ARG_OF_PERICENTER = 187.0918
MEAN_ANOMALY   = 173.0102

EPHEMERIS_TYPE = 0
CLASSIFICATION_TYPE = U
NORAD_CAT_ID   = 67270
ELEMENT_SET_NO = 999
REV_AT_EPOCH   = 222
BSTAR          = .58504776E-3
MEAN_MOTION_DOT = .12631E-3
MEAN_MOTION_DDOT = 0

CCSDS_OMM_VERS = 2.0
CREATION_DATE  = 
ORIGINATOR     = 

OBJECT_NAME    = 2025-313Z
OBJECT_ID      = 2025-313Z
CENTER_NAME    = EARTH
REF_FRAME      = TEME
TIME_SYSTEM    = UTC
MEAN_ELEMENT_THEORY = SGP/SGP4

EPOCH          = 2026-01-12T07:00:54.408960
MEAN_MOTION    = 15.19995060
ECCENTRICITY   = .00153854
INCLINATION    = 97.4117
RA_OF_ASC_NODE = 89.4974
ARG_OF_PERICENTER = 182.3046
MEAN_ANOMALY   = 177.8121

EPHEMERIS_TYPE = 0
CLASSIFICATION_TYPE = U
NORAD_CAT_ID   = 67271
ELEMENT_SET_NO = 999
REV_AT_EPOCH   = 224
BSTAR          = .26397242E-3
MEAN_MOTION_DOT = .5634E-4
MEAN_MOTION_DDOT = 0

CCSDS_OMM_VERS = 2.0
CREATION_DATE  = 
ORIGINATOR     = 

OBJECT_NAME    = 2025-313AA
OBJECT_ID      = 2025-313AA
CENTER_NAME    = EARTH
REF_FRAME      = TEME
TIME_SYSTEM    = UTC
MEAN_ELEMENT_THEORY = SGP/SGP4

EPOCH          = 2026-01-12T06:58:27.442560
MEAN_MOTION    = 15.20312766
ECCENTRICITY   = .00150967
INCLINATION    = 97.4121
RA_OF_ASC_NODE = 89.4981
ARG_OF_PERICENTER = 186.9387
MEAN_ANOMALY   = 173.1642

EPHEMERIS_TYPE = 0
CLASSIFICATION_TYPE = U
NORAD_CAT_ID   = 67272
ELEMENT_SET_NO = 999
REV_AT_EPOCH   = 224
BSTAR          = .58712615E-3
MEAN_MOTION_DOT = .12742E-3
MEAN_MOTION_DDOT = 0

CCSDS_OMM_VERS = 2.0
CREATION_DATE  = 
ORIGINATOR     = 

OBJECT_NAME    = 2025-313AB
OBJECT_ID      = 2025-313AB
CENTER_NAME    = EARTH
REF_FRAME      = TEME
TIME_SYSTEM    = UTC
MEAN_ELEMENT_THEORY = SGP/SGP4

EPOCH          = 2026-01-12T07:00:41.137056
MEAN_MOTION    = 15.19984985
ECCENTRICITY   = .0014279
INCLINATION    = 97.4136
RA_OF_ASC_NODE = 89.5000
ARG_OF_PERICENTER = 190.8876
MEAN_ANOMALY   = 169.2052

EPHEMERIS_TYPE = 0
CLASSIFICATION_TYPE = U
NORAD_CAT_ID   = 67273
ELEMENT_SET_NO = 999
REV_AT_EPOCH   = 224
BSTAR          = .18797821E-3
MEAN_MOTION_DOT = .3988E-4
MEAN_MOTION_DDOT = 0

CCSDS_OMM_VERS = 2.0
CREATION_DATE  = 
ORIGINATOR     = 

OBJECT_NAME    = 2025-313AC
OBJECT_ID      = 2025-313AC
CENTER_NAME    = EARTH
REF_FRAME      = TEME
TIME_SYSTEM    = UTC
MEAN_ELEMENT_THEORY = SGP/SGP4

EPOCH          = 2026-01-12T05:24:42.266016
MEAN_MOTION    = 15.20136867
ECCENTRICITY   = .00150406
INCLINATION    = 97.4110
RA_OF_ASC_NODE = 89.4406
ARG_OF_PERICENTER = 186.2023
MEAN_ANOMALY   = 173.9028

EPHEMERIS_TYPE = 0
CLASSIFICATION_TYPE = U
NORAD_CAT_ID   = 67274
ELEMENT_SET_NO = 999
REV_AT_EPOCH   = 223
BSTAR          = .3850263E-3
MEAN_MOTION_DOT = .8285E-4
MEAN_MOTION_DDOT = 0

CCSDS_OMM_VERS = 2.0
CREATION_DATE  = 
ORIGINATOR     = 

OBJECT_NAME    = 2025-313AD
OBJECT_ID      = 2025-313AD
CENTER_NAME    = EARTH
REF_FRAME      = TEME
TIME_SYSTEM    = UTC
MEAN_ELEMENT_THEORY = SGP/SGP4

EPOCH          = 2026-01-12T06:58:45.319584
MEAN_MOTION    = 15.20195794
ECCENTRICITY   = .00142635
INCLINATION    = 97.4085
RA_OF_ASC_NODE = 89.5014
ARG_OF_PERICENTER = 188.8354
MEAN_ANOMALY   = 171.2632

EPHEMERIS_TYPE = 0
CLASSIFICATION_TYPE = U
NORAD_CAT_ID   = 67275
ELEMENT_SET_NO = 999
REV_AT_EPOCH   = 224
BSTAR          = .41343846E-3
MEAN_MOTION_DOT = .8915E-4
MEAN_MOTION_DDOT = 0

CCSDS_OMM_VERS = 2.0
CREATION_DATE  = 
ORIGINATOR     = 

OBJECT_NAME    = 2025-313AE
OBJECT_ID      = 2025-313AE
CENTER_NAME    = EARTH
REF_FRAME      = TEME
TIME_SYSTEM    = UTC
MEAN_ELEMENT_THEORY = SGP/SGP4

EPOCH          = 2026-01-12T06:58:42.263616
MEAN_MOTION    = 15.20196889
ECCENTRICITY   = .00142196
INCLINATION    = 97.4090
RA_OF_ASC_NODE = 89.5018
ARG_OF_PERICENTER = 188.8433
MEAN_ANOMALY   = 171.2554

EPHEMERIS_TYPE = 0
CLASSIFICATION_TYPE = U
NORAD_CAT_ID   = 67276
ELEMENT_SET_NO = 999
REV_AT_EPOCH   = 224
BSTAR          = .38909068E-3
MEAN_MOTION_DOT = .8385E-4
MEAN_MOTION_DDOT = 0

CCSDS_OMM_VERS = 2.0
CREATION_DATE  = 
ORIGINATOR     = 

OBJECT_NAME    = 2025-313AF
OBJECT_ID      = 2025-313AF
CENTER_NAME    = EARTH
REF_FRAME      = TEME
TIME_SYSTEM    = UTC
MEAN_ELEMENT_THEORY = SGP/SGP4

EPOCH          = 2026-01-12T06:58:55.907904
MEAN_MOTION    = 15.20165133
ECCENTRICITY   = .00142037
INCLINATION    = 97.4091
RA_OF_ASC_NODE = 89.5022
ARG_OF_PERICENTER = 188.6916
MEAN_ANOMALY   = 171.4076

EPHEMERIS_TYPE = 0
CLASSIFICATION_TYPE = U
NORAD_CAT_ID   = 67277
ELEMENT_SET_NO = 999
REV_AT_EPOCH   = 224
BSTAR          = .35444353E-3
MEAN_MOTION_DOT = .7624E-4
MEAN_MOTION_DDOT = 0

